{
    "links": {
        "self": "http://www.neowsapp.com/rest/v1/neo/3836276?api_key=iIulBulltgU6a56xZRHN4H3l9WmuAYTsLGpBGhQ2"
    },
    "id": "3836276",
    "neo_reference_id": "3836276",
    "name": "(2018 WL)",
    "designation": "2018 WL",
    "nasa_jpl_url": "http://ssd.jpl.nasa.gov/sbdb.cgi?sstr=3836276",
    "absolute_magnitude_h": 25.9,
    "estimated_diameter": {
        "kilometers": {
            "estimated_diameter_min": 0.0175612318,
            "estimated_diameter_max": 0.0392681082
        },
        "meters": {
            "estimated_diameter_min": 17.561231848,
            "estimated_diameter_max": 39.2681081809
        },
        "miles": {
            "estimated_diameter_min": 0.0109120402,
            "estimated_diameter_max": 0.0244000636
        },
        "feet": {
            "estimated_diameter_min": 57.6155918963,
            "estimated_diameter_max": 128.8323800441
        }
    },
    "is_potentially_hazardous_asteroid": false,
    "close_approach_data": [
        {
            "close_approach_date": "2018-11-30",
            "close_approach_date_full": "2018-Nov-30 10:13",
            "epoch_date_close_approach": 1543572780000,
            "relative_velocity": {
                "kilometers_per_second": "6.0951026592",
                "kilometers_per_hour": "21942.369573268",
                "miles_per_hour": "13634.1351384564"
            },
            "miss_distance": {
                "astronomical": "0.0810603862",
                "lunar": "31.5324902318",
                "kilometers": "12126461.116897394",
                "miles": "7535033.5338922772"
            },
            "orbiting_body": "Earth"
        }
    ],
    "orbital_data": {
        "orbit_id": "2",
        "orbit_determination_date": "2018-11-28 06:25:32",
        "first_observation_date": "2018-11-17",
        "last_observation_date": "2018-11-28",
        "data_arc_in_days": 11,
        "observations_used": 23,
        "orbit_uncertainty": "8",
        "minimum_orbit_intersection": ".080589",
        "jupiter_tisserand_invariant": "4.005",
        "epoch_osculation": "2458440.5",
        "eccentricity": ".4050125040262952",
        "semi_major_axis": "1.764458787533634",
        "inclination": "7.313330947793639",
        "ascending_node_longitude": "233.0654874584934",
        "orbital_period": "856.082669628623",
        "perihelion_distance": "1.049830915743436",
        "perihelion_argument": "209.4182667009187",
        "aphelion_distance": "2.479086659323831",
        "perihelion_time": "2458465.806987113718",
        "mean_anomaly": "349.357902356684",
        "mean_motion": ".4205201352296636",
        "equinox": "J2000",
        "orbit_class": {
            "orbit_class_type": "AMO",
            "orbit_class_description": "Near-Earth asteroid orbits similar to that of 1221 Amor",
            "orbit_class_range": "1.017 AU < q (perihelion) < 1.3 AU"
        }
    },
    "is_sentry_object": false
}